[{"OBJECT_NAME":"STARLINK-30389","OBJECT_ID":"2023-134N","EPOCH":"2026-03-09T22:00:01.999584","MEAN_MOTION":15.16403467,"ECCENTRICITY":0.00019924,"INCLINATION":43.0002,"RA_OF_ASC_NODE":195.6102,"ARG_OF_PERICENTER":266.5595,"MEAN_ANOMALY":76.2223,"EPHEMERIS_TYPE":0,"CLASSIFICATION_TYPE":"U","NORAD_CAT_ID":57783,"ELEMENT_SET_NO":999,"REV_AT_EPOCH":578,"BSTAR":0.003849227,"MEAN_MOTION_DOT":0.00076742,"MEAN_MOTION_DDOT":0},{"OBJECT_NAME":"CZ-6A DEB","OBJECT_ID":"2022-151AFF","EPOCH":"2026-03-08T15:34:13.969920","MEAN_MOTION":15.07686186,"ECCENTRICITY":0.00385412,"INCLINATION":98.6214,"RA_OF_ASC_NODE":147.2095,"ARG_OF_PERICENTER":177.326,"MEAN_ANOMALY":182.8178,"EPHEMERIS_TYPE":0,"CLASSIFICATION_TYPE":"U","NORAD_CAT_ID":56631,"ELEMENT_SET_NO":999,"REV_AT_EPOCH":15333,"BSTAR":0.0088285077,"MEAN_MOTION_DOT":0.00139408,"MEAN_MOTION_DDOT":0}]
